NORAD_CAT_ID,OBJECT_NAME,OBJECT_TYPE,EPOCH,MEAN_MOTION,ECCENTRICITY,INCLINATION,RA_OF_ASC_NODE,ARG_OF_PERICENTER,MEAN_ANOMALY,BSTAR,MEAN_MOTION_DOT,MEAN_MOTION_DDOT,TLE_LINE0,TLE_LINE1,TLE_LINE2,SEMIMAJOR_AXIS,PERIOD,APOGEE,PERIGEE,DECAYED
55659.0,STARLINK-5477,PAYLOAD,2024-08-12 21:42:06,14.98342159,0.000245,70.0018,171.313,251.4285,108.6608,5.2668e-05,5.36e-06,0.0,0 STARLINK-5477,1 55659U 23021AH  24225.90424567  .00000536  00000-0  52668-4 0  9995,2 55659  70.0018 171.3130 0002450 251.4285 108.6608 14.98342159 83031,6950.155,96.106,573.723,570.318,0.0
55659.0,STARLINK-5477,PAYLOAD,2024-08-12 23:18:14,14.98341423,0.0002476,70.0015,171.1446,252.9042,107.1846,2.6852e-05,2.28e-06,0.0,0 STARLINK-5477,1 55659U 23021AH  24225.97100636  .00000228  00000-0  26852-4 0  9994,2 55659  70.0015 171.1446 0002476 252.9042 107.1846 14.98341423 83346,6950.158,96.106,573.743,570.302,0.0
55659.0,STARLINK-5477,PAYLOAD,2024-08-13 13:43:27,14.98334896,0.0002236,70.0011,169.6254,276.3227,83.7678,-0.00015005,-1.883e-05,0.0,0 STARLINK-5477,1 55659U 23021AH  24226.57185060 -.00001883  00000-0 -15005-3 0  9992,2 55659  70.0011 169.6254 0002236 276.3227  83.7678 14.98334896 83438,6950.178,96.107,573.597,570.489,0.0
55659.0,STARLINK-5477,PAYLOAD,2024-08-13 20:08:02,14.98297701,0.0002973,70.0012,168.9542,271.568,88.5139,-0.00026403,-3.239e-05,0.0,0 STARLINK-5477,1 55659U 23021AH  24226.83891629 -.00003239  00000-0 -26403-3 0  9997,2 55659  70.0012 168.9542 0002973 271.5680  88.5139 14.98297701 83178,6950.293,96.109,574.224,570.091,0.0
55659.0,STARLINK-5477,PAYLOAD,2024-08-14 04:08:42,14.98306194,0.0002897,69.9999,168.1105,268.4157,91.667,-0.00024672,-3.034e-05,0.0,0 STARLINK-5477,1 55659U 23021AH  24227.17271532 -.00003034  00000-0 -24672-3 0  9999,2 55659  69.9999 168.1105 0002897 268.4157  91.6670 14.98306194 83223,6950.267,96.109,574.145,570.118,0.0
55659.0,STARLINK-5477,PAYLOAD,2024-08-14 13:45:30,14.98316807,0.0003039,70.0001,167.1025,270.3074,89.7737,-0.00021903,-2.705e-05,0.0,0 STARLINK-5477,1 55659U 23021AH  24227.57327191 -.00002705  00000-0 -21903-3 0  9994,2 55659  70.0001 167.1025 0003039 270.3074  89.7737 14.98316807 83582,6950.234,96.108,574.211,569.987,0.0
55659.0,STARLINK-5477,PAYLOAD,2024-08-14 20:10:02,14.98314757,0.0003134,70.0,166.4297,268.9938,91.0862,-2.2509e-05,-3.61e-06,0.0,0 STARLINK-5477,1 55659U 23021AH  24227.84031124 -.00000361  00000-0 -22509-4 0  9992,2 55659  70.0000 166.4297 0003134 268.9938  91.0862 14.98314757 83321,6950.24,96.108,574.283,569.927,0.0
55659.0,STARLINK-5477,PAYLOAD,2024-08-14 21:46:10,14.98316401,0.0003096,70.0001,166.2611,268.0258,92.0547,6.3291e-06,-1.8e-07,0.0,0 STARLINK-5477,1 55659U 23021AH  24227.90707084 -.00000018  00000-0  63291-5 0  9996,2 55659  70.0001 166.2611 0003096 268.0258  92.0547 14.98316401 83636,6950.235,96.108,574.252,569.948,0.0
55659.0,STARLINK-5477,PAYLOAD,2024-08-15 13:47:31,14.98340442,0.0003368,70.001,164.5768,269.9486,90.1287,0.0014618,0.00017397,0.0,0 STARLINK-5477,1 55659U 23021AH  24228.57467341  .00017397  00000-0  14618-2 0  9992,2 55659  70.0010 164.5768 0003368 269.9486  90.1287 14.98340442 83738,6950.161,96.106,574.366,569.685,0.0
55659.0,STARLINK-5477,PAYLOAD,2024-08-15 21:48:11,14.98353007,0.0003405,70.001,163.7355,269.9934,90.0835,0.0014571,0.00017347,0.0,0 STARLINK-5477,1 55659U 23021AH  24228.90846938  .00017347  00000-0  14571-2 0  9995,2 55659  70.0010 163.7355 0003405 269.9934  90.0835 14.98353007 83482,6950.122,96.106,574.353,569.62,0.0
55659.0,STARLINK-5477,PAYLOAD,2024-08-16 05:48:51,14.98370402,0.0003389,70.0011,162.8941,269.7482,90.3288,0.0017257,0.0002058,0.0,0 STARLINK-5477,1 55659U 23021AH  24229.24226177  .00020580  00000-0  17257-2 0  9997,2 55659  70.0011 162.8941 0003389 269.7482  90.3288 14.98370402 83833,6950.068,96.104,574.288,569.578,0.0
55659.0,STARLINK-5477,PAYLOAD,2024-08-16 21:50:11,14.98362998,0.0003225,70.0014,161.2111,270.5224,89.5566,0.00097544,0.00011575,0.0,0 STARLINK-5477,1 55659U 23021AH  24229.90985551  .00011575  00000-0  97544-3 0  9990,2 55659  70.0014 161.2111 0003225 270.5224  89.5566 14.98362998 83932,6950.091,96.105,574.197,569.714,0.0
55659.0,STARLINK-5477,PAYLOAD,2024-08-17 04:14:43,14.98359952,0.0003333,70.0015,160.5379,270.5407,89.537,0.00078968,9.349e-05,0.0,0 STARLINK-5477,1 55659U 23021AH  24230.17689194  .00009349  00000-0  78968-3 0  9990,2 55659  70.0015 160.5379 0003333 270.5407  89.5370 14.98359952 83674,6950.1,96.105,574.282,569.649,0.0
55659.0,STARLINK-5477,PAYLOAD,2024-08-17 05:50:51,14.98360604,0.0003325,70.0015,160.3696,267.1843,92.8936,0.00080688,9.555e-05,0.0,0 STARLINK-5477,1 55659U 23021AH  24230.24365063  .00009555  00000-0  80688-3 0  9995,2 55659  70.0015 160.3696 0003325 267.1843  92.8936 14.98360604 83986,6950.098,96.105,574.274,569.652,0.0
55659.0,STARLINK-5477,PAYLOAD,2024-08-17 21:52:12,14.98336982,0.0003284,70.002,158.6866,269.1743,90.904,0.00090625,0.00010739,0.0,0 STARLINK-5477,1 55659U 23021AH  24230.91125497  .00010739  00000-0  90625-3 0  9992,2 55659  70.0020 158.6866 0003284 269.1743  90.9040 14.98336982 84085,6950.171,96.107,574.319,569.754,0.0
55659.0,STARLINK-5477,PAYLOAD,2024-08-18 04:16:44,14.98333287,0.0002946,70.0028,158.0149,256.4585,103.6246,0.00019589,2.245e-05,0.0,0 STARLINK-5477,1 55659U 23021AH  24231.17829428  .00002245  00000-0  19589-3 0  9999,2 55659  70.0028 158.0149 0002946 256.4585 103.6246 14.98333287 83824,6950.183,96.107,574.095,570.0,0.0
55659.0,STARLINK-5477,PAYLOAD,2024-08-18 21:54:13,14.98335532,0.0003,70.0023,156.1625,265.7279,94.3537,0.0002294,2.646e-05,0.0,0 STARLINK-5477,1 55659U 23021AH  24231.91265553  .00002646  00000-0  22940-3 0  9994,2 55659  70.0023 156.1625 0003000 265.7279  94.3537 14.98335532 84232,6950.176,96.107,574.126,569.956,0.0
55659.0,STARLINK-5477,PAYLOAD,2024-08-19 04:18:45,14.98339063,0.0002859,70.0027,155.4898,258.0575,102.0264,0.00026278,3.045e-05,0.0,0 STARLINK-5477,1 55659U 23021AH  24232.17969327  .00003045  00000-0  26278-3 0  9995,2 55659  70.0027 155.4898 0002859 258.0575 102.0264 14.98339063 83972,6950.165,96.106,574.017,570.043,0.0
55659.0,STARLINK-5477,PAYLOAD,2024-08-19 12:19:25,14.98334011,0.0002985,70.0023,154.6469,274.4065,85.6753,0.00015806,1.794e-05,0.0,0 STARLINK-5477,1 55659U 23021AH  24232.51349505  .00001794  00000-0  15806-3 0  9997,2 55659  70.0023 154.6469 0002985 274.4065  85.6753 14.98334011 84326,6950.18,96.107,574.12,569.971,0.0
55659.0,STARLINK-5477,PAYLOAD,2024-08-19 18:43:58,14.98330193,0.0002458,70.0035,153.9731,269.4373,90.6505,0.00018652,2.133e-05,0.0,0 STARLINK-5477,1 55659U 23021AH  24232.78053932  .00002133  00000-0  18652-3 0  9992,2 55659  70.0035 153.9731 0002458 269.4373  90.6505 14.98330193 84063,6950.192,96.107,573.766,570.349,0.0
55659.0,STARLINK-5477,PAYLOAD,2024-08-20 04:20:47,14.98327604,0.0002635,70.0026,152.9633,269.3488,90.7369,8.374e-05,9.06e-06,0.0,0 STARLINK-5477,1 55659U 23021AH  24233.18110101  .00000906  00000-0  83740-4 0  9996,2 55659  70.0026 152.9633 0002635 269.3488  90.7369 14.98327604 84428,6950.2,96.107,573.897,570.234,0.0
55659.0,STARLINK-5477,PAYLOAD,2024-08-20 20:22:07,14.98335374,0.0002767,70.0019,151.2797,269.7901,90.2941,0.00018618,2.129e-05,0.0,0 STARLINK-5477,1 55659U 23021AH  24233.84869655  .00002129  00000-0  18618-3 0  9994,2 55659  70.0019 151.2797 0002767 269.7901  90.2941 14.98335374 84225,6950.176,96.107,573.964,570.118,0.0
55659.0,STARLINK-5477,PAYLOAD,2024-08-21 04:22:47,14.98340829,0.0002683,70.0023,150.4393,272.0322,88.053,0.00031484,3.667e-05,0.0,0 STARLINK-5477,1 55659U 23021AH  24234.18249358  .00003667  00000-0  31484-3 0  9998,2 55659  70.0023 150.4393 0002683 272.0322  88.0530 14.98340829 84572,6950.159,96.106,573.889,570.16,0.0
55659.0,STARLINK-5477,PAYLOAD,2024-08-21 20:24:08,14.98327251,0.0002662,70.002,148.7584,259.9102,100.1756,8.8399e-05,9.62e-06,0.0,0 STARLINK-5477,1 55659U 23021AH  24234.85009876  .00000962  00000-0  88399-4 0  9994,2 55659  70.0020 148.7584 0002662 259.9102 100.1756 14.98327251 84376,6950.201,96.107,573.917,570.216,0.0
